
STARLINK-2419           
1 47830U 21018AV  25032.07257712 -.00001714  00000+0 -96229-4 0  9993
2 47830  53.0567 264.5505 0001796  88.5836 271.5359 15.06385598215918
STARLINK-2420           
1 47831U 21018AW  25032.53745487  .00000296  00000+0  38780-4 0  9996
2 47831  53.0520 237.4597 0001637  98.0034 262.1140 15.06402686216393
STARLINK-2422           
1 47832U 21018AX  25032.62639751  .00003826  00000+0  27554-3 0  9991
2 47832  53.0532 252.0634 0002088  96.4106 263.7121 15.06408684215811
STARLINK-2423           
1 47833U 21018AY  25032.65218125  .00002038  00000+0  15563-3 0  9994
2 47833  53.0540 251.9494 0001433  87.1756 272.9397 15.06406801216204
STARLINK-2424           
1 47834U 21018AZ  25032.59689571  .00002145  00000+0  16283-3 0  9994
2 47834  53.0551 252.1927 0001478  91.6572 268.4586 15.06402822215800
STARLINK-2426           
1 47836U 21018BB  25031.88552162  .00007555  00000+0  52557-3 0  9996
2 47836  53.0521 255.4742 0001523  89.4542 270.6621 15.06396732216036
STARLINK-2427           
1 47837U 21018BC  25032.88991939  .00001872  00000+0  14456-3 0  9999
2 47837  53.0508 230.8743 0002162  98.5654 261.5580 15.06400151216477
STARLINK-2429           
1 47838U 21018BD  25031.90762118  .00002191  00000+0  16591-3 0  9994
2 47838  53.0567 255.2885 0001497  92.0131 268.1029 15.06400994215701
STARLINK-2431           
1 47839U 21018BE  25032.93137962  .00001891  00000+0  14581-3 0  9995
2 47839  53.0524 220.6894 0001895  98.9914 261.1289 15.06406895216626
STARLINK-2432           
1 47840U 21018BF  25032.54344387  .00001758  00000+0  13688-3 0  9994
2 47840  53.0518 232.4352 0001279  91.0392 269.0743 15.06404595216415
STARLINK-2433           
1 47841U 21018BG  25032.53976045 -.00000141  00000+0  94273-5 0  9993
2 47841  53.0555 232.4502 0001467  85.6827 274.4330 15.06398972216418
STARLINK-2435           
1 47843U 21018BJ  25032.63144693  .00003075  00000+0  22518-3 0  9991
2 47843  53.0524 257.0392 0001426  91.8548 268.2604 15.06405625216093
STARLINK-2446           
1 47844U 21018BK  25032.63006418  .00000364  00000+0  43341-4 0  9990
2 47844  53.0483 252.0428 0001987  94.0263 266.0953 15.06402221216142
STARLINK-2453           
1 47845U 21018BL  25032.58215132  .00003114  00000+0  22789-3 0  9998
2 47845  53.0426 252.2567 0001686 319.4210  40.6653 15.06394787215800
SHIYAN 9 (SY-9)         
1 47851U 21019A   25031.56955553 -.00000222  00000+0  00000+0 0  9997
2 47851  17.6152 308.8948 0014765  16.1369 157.9073  1.00270962 19108
YAOGAN-31 04A           
1 47854U 21020A   25032.94452246  .00000020  00000+0  17633-3 0  9995
2 47854  63.4070 103.2089 0130430 358.5716   1.4919 13.45383365191162
YAOGAN-31 04B           
1 47856U 21020C   25032.79604173 -.00000005  00000+0  13675-3 0  9994
2 47856  63.4065 104.3991 0130157 358.6436   1.4218 13.45382294191081
YAOGAN-31 04C           
1 47857U 21020D   25032.94472017  .00000005  00000+0  15188-3 0  9992
2 47857  63.4076 103.2622 0130287 358.5587   1.5045 13.45383929191156
STARLINK-2280           
1 47861U 21021B   25032.07027956 -.00000262  00000+0  13468-5 0  9997
2 47861  53.0556 269.5577 0001850  96.9279 263.1921 15.06381435215737
STARLINK-2291           
1 47862U 21021C   25031.98410915  .00005220  00000+0  36909-3 0  9999
2 47862  53.0535 264.9462 0001682  92.6595 267.4587 15.06397140215784
STARLINK-2293           
1 47863U 21021D   25032.07534439  .00003988  00000+0  28645-3 0  9996
2 47863  53.0552 274.5385 0001294  84.8081 275.3055 15.06398372215660
STARLINK-2304           
1 47864U 21021E   25032.86711612  .01685558  22284-2  16151-2 0  9993
2 47864  53.0379 231.6528 0006428 298.7787 195.4774 16.11629274215838
STARLINK-2310           
1 47865U 21021F   25032.83334491  .00206109  00000+0  13608-2 0  9990
2 47865  53.0364 242.9828 0000581 202.1489 342.0675 15.74467118  6005
STARLINK-2320           
1 47866U 21021G   25032.83334491  .00841145  00000+0  38160-2 0  9996
2 47866  53.0478 244.6367 0000855  89.7425 308.0290 15.81143355  5996
STARLINK-2321           
1 47867U 21021H   25032.83334491  .00836320  00000+0  33846-2 0  9992
2 47867  53.0458 227.0581 0000814  23.0765 292.1167 15.83615412  5762
STARLINK-2323           
1 47868U 21021J   25032.83644861 -.00014951  00000+0 -98585-3 0  9990
2 47868  53.0523 211.1163 0001043  91.1727 268.9381 15.06439441216624
STARLINK-2326           
1 47870U 21021L   25032.72451968  .00012354  00000+0  84659-3 0  9995
2 47870  53.0535 286.6235 0001353  92.0586 268.0558 15.06409348215443
STARLINK-2329           
1 47873U 21021P   25032.61808854 -.00001121  00000+0 -56387-4 0  9996
2 47873  53.0509 262.0996 0001650  80.5386 279.5789 15.06394673215402
STARLINK-2330           
1 47874U 21021Q   25032.82679616  .00003075  00000+0  22510-3 0  9990
2 47874  53.0535 216.1736 0000568 101.3270 258.7782 15.06416372216544
STARLINK-2332           
1 47876U 21021S   25032.83334491  .00910533  00000+0  29952-2 0  9994
2 47876  53.0355 236.4905 0000634  33.5144  39.2151 15.87746778  6037
STARLINK-2333           
1 47877U 21021T   25032.83334491  .00936055  00000+0  69308-2 0  9991
2 47877  53.0494 247.7765 0000635 106.2405  32.5721 15.70001188  5972
STARLINK-2335           
1 47878U 21021U   25032.83334491  .00745659  00000+0  40508-2 0  9991
2 47878  53.0496 245.2455 0000232  59.0912 173.9309 15.77392536  6009
STARLINK-2336           
1 47879U 21021V   25032.09055032  .00002216  00000+0  16769-3 0  9999
2 47879  53.0524 289.4651 0001623  82.6747 277.4426 15.06389558215625
STARLINK-2337           
1 47880U 21021W   25032.83334491  .00779284  00000+0  31055-2 0  9992
2 47880  53.0427 247.1132 0000414  75.0428  97.1898 15.84083245  5967
STARLINK-2340           
1 47882U 21021Y   25032.62071237  .00044874  00000+0  17822-2 0  9993
2 47882  53.0589 261.1600 0006497 143.2785 216.8659 15.24898403215428
STARLINK-2342           
1 47883U 21021Z   25032.69964089  .00015079  00000+0  10286-2 0  9999
2 47883  53.0574 276.7349 0000396  73.1498 286.9535 15.06414693215852
STARLINK-2343           
1 47884U 21021AA  25032.08547278  .00007709  00000+0  53587-3 0  9993
2 47884  53.0545 284.4904 0001389  94.6442 265.4706 15.06397205215518
STARLINK-2344           
1 47885U 21021AB  25032.83334491  .00642562  00000+0  47660-2 0  9994
2 47885  53.0489 259.7640 0000870 112.3152 136.3674 15.70419633  5976
STARLINK-2346           
1 47887U 21021AD  25032.70102709  .00023201  00000+0  15710-2 0  9991
2 47887  53.0543 281.7265 0001088  84.2182 275.8931 15.06408353215614
STARLINK-2348           
1 47888U 21021AE  25032.65772408  .00013706  00000+0  93655-3 0  9999
2 47888  53.0529 271.9253 0002233  94.5882 265.5362 15.06427722215751
STARLINK-2352           
1 47892U 21021AJ  25032.83334491  .00261823  00000+0  16676-2 0  9992
2 47892  53.0488 209.7714 0003885 322.6704 286.0316 15.75124463  6019
STARLINK-2354           
1 47894U 21021AL  25032.69827356  .00007424  00000+0  51718-3 0  9997
2 47894  53.0490 271.7384 0000724  57.2099 302.8960 15.06369676215704
STARLINK-2355           
1 47895U 21021AM  25032.11222424  .00017126  00000+0  11653-2 0  9993
2 47895  53.0521 274.3718 0004606  84.1205 276.0309 15.06412961215649
STARLINK-2356           
1 47896U 21021AN  25032.70241325  .00015389  00000+0  10488-2 0  9994
2 47896  53.0563 286.7218 0001122  87.4062 272.7056 15.06432794215496
STARLINK-2358           
1 47898U 21021AQ  25032.70194442  .00003531  00000+0  25578-3 0  9996
2 47898  53.0503 271.7250 0002153  96.0654 264.0581 15.06404935215707
STARLINK-2361           
1 47901U 21021AT  25032.62178716  .00002974  00000+0  21849-3 0  9995
2 47901  53.0483 262.1700 0002916  85.4452 274.6870 15.06401204215409
STARLINK-2363           
1 47903U 21021AV  25032.62820329  .00003374  00000+0  24530-3 0  9996
2 47903  53.0497 262.0422 0001763  87.0330 273.0861 15.06403070216225
STARLINK-2364           
1 47904U 21021AW  25032.62546339  .00002495  00000+0  18635-3 0  9995
2 47904  53.0539 262.0671 0001446  93.7190 266.3965 15.06398441215869
STARLINK-2365           
1 47905U 21021AX  25033.00231166  .02083207  47279-2  16022-2 0  9999
2 47905  53.0374 231.3022 0008485 289.1705 194.1079 16.15407101215699
STARLINK-2367           
1 47907U 21021AZ  25032.69733602  .00005867  00000+0  41228-3 0  9996
2 47907  53.0558 281.7454 0001606  94.8732 265.2441 15.06415350215576
STARLINK-2368           
1 47908U 21021BA  25032.10759175  .00007362  00000+0  51272-3 0  9998
2 47908  53.0570 284.3911 0001973  91.5356 268.5859 15.06393844215517
STARLINK-2370           
1 47910U 21021BC  25032.10853879  .00000532  00000+0  54645-4 0  9997
2 47910  53.0601 274.5528 0001678  82.8741 277.2439 15.06393137215676
STARLINK-2371           
1 47911U 21021BD  25032.10901397  .00007029  00000+0  49035-3 0  9991
2 47911  53.0559 289.6251 0001246  99.3228 260.7902 15.06395999215291
STARLINK-2372           
1 47912U 21021BE  25032.83334491  .00553447  00000+0  36744-2 0  9999
2 47912  53.0480 242.6083 0000456 101.5535  88.4913 15.73315915  5946
STARLINK-2378           
1 47916U 21021BJ  25032.68075133 -.00000138  00000+0  96379-5 0  9999
2 47916  53.0526 261.8132 0001520  82.9196 277.1966 15.06396680215871
STARLINK-2397           
1 47917U 21021BK  25032.83334491  .00597079  00000+0  53982-2 0  9996
2 47917  53.0404 246.7798 0000754  99.2016 103.7609 15.65687952  5861
STARLINK-2398           
1 47918U 21021BL  25032.83334491  .01068376  53479-3  27096-2 0  9990
2 47918  53.0446 244.3027 0002067 288.1160 352.8237 15.94991317  5965
STARLINK-2405           
1 47919U 21021BM  25032.08180123  .00007563  00000+0  52624-3 0  9993
2 47919  53.0541 284.5082 0001594  75.5833 284.5333 15.06390093215506
